KENT RIDGE 1            
1 41167U 15077B   26095.59441238  .00005624  00000+0  20222-3 0  9994
2 41167  14.9796  85.6612 0008466 294.3730  65.5708 15.22689054570013
GAOFEN-4                
1 41194U 15083A   26095.86156119 -.00000333  00000+0  00000+0 0  9993
2 41194   0.3953  82.9472 0006205  84.8085  82.2552  1.00270803 37802
JASON-3                 
1 41240U 16002A   26095.84729905 -.00000057  00000+0  19605-4 0  9993
2 41240  66.0400 277.9232 0007672 276.0567  83.9577 12.87627875477938
SENTINEL-3A             
1 41335U 16011A   26095.84251189  .00000213  00000+0  10595-3 0  9993
2 41335  98.6296 164.2489 0001093  89.6995 270.4311 14.26733843527745
ZIYUAN 3-02 (ZY 3-02)   
1 41556U 16033A   26095.83940507  .00008250  00000+0  37013-3 0  9993
2 41556  97.3857 172.9901 0013657 184.1992 175.9132 15.21369558546982
CARTOSAT-2C             
1 41599U 16040A   26095.80771073  .00005057  00000+0  24306-3 0  9998
2 41599  97.4548 156.7524 0009927  33.3991 326.7868 15.19224551542727
SKYSAT-C1               
1 41601U 16040C   26095.36689778  .00012372  00000+0  36517-3 0  9998
2 41601  96.9644 131.0677 0000602 326.5790  33.5417 15.35104314546697
LAPAN-A3                
1 41603U 16040E   26095.86124420  .00004928  00000+0  15865-3 0  9994
2 41603  97.1493  94.4131 0008363 276.3000  83.7290 15.32630870543735
GAOFEN-3                
1 41727U 16049A   26095.86159523 -.00000082  00000+0 -11635-4 0  9993
2 41727  98.4041 104.7314 0001576  70.1965 289.9394 14.42222768508225
SKYSAT-C4               
1 41771U 16058B   26095.51913017  .00018723  00000+0  37982-3 0  9991
2 41771  96.9246 120.4257 0003020 124.5066 235.6470 15.46402302534239
SKYSAT-C5               
1 41772U 16058C   26095.69836887  .00009974  00000+0  30290-3 0  9993
2 41772  97.0553 139.5856 0002317 169.3401 190.7892 15.34258715532632
SKYSAT-C2               
1 41773U 16058D   26095.80273112  .00015457  00000+0  38290-3 0  9994
2 41773  97.0240 120.6838 0001949 351.1663   8.9549 15.40487567533904
SKYSAT-C3               
1 41774U 16058E   26095.69138837  .00026860  00000+0  48593-3 0  9993
2 41774  96.9117 129.4336 0002441 110.9766 249.1748 15.49643374534875
ALSAT-1B                
1 41785U 16059C   26095.85787292  .00000693  00000+0  11730-3 0  9998
2 41785  97.7786 107.7373 0010802  97.1364 263.1073 14.72219349509930
PATHFINDER 1            
1 41787U 16059E   26095.86712010  .00001092  00000+0  19930-3 0  9991
2 41787  97.8183  98.4095 0029949  77.5714 282.8840 14.67571326509103
SCATSAT 1               
1 41790U 16059H   26095.64238850  .00002300  00000+0  30794-3 0  9990
2 41790  98.1245 158.6498 0056036 121.3514 239.3198 14.79363616 90864
GOKTURK 1A              
1 41875U 16073A   26095.80626216  .00000547  00000+0  11635-3 0  9999
2 41875  98.1328 351.5859 0001366  82.6991 277.4366 14.62779862498249
