[{"OBJECT_NAME":"KENT RIDGE 1","OBJECT_ID":"2015-077B","EPOCH":"2026-04-05T14:15:57.229632","MEAN_MOTION":15.22689054,"ECCENTRICITY":0.0008466,"INCLINATION":14.9796,"RA_OF_ASC_NODE":85.6612,"ARG_OF_PERICENTER":294.373,"MEAN_ANOMALY":65.5708,"EPHEMERIS_TYPE":0,"CLASSIFICATION_TYPE":"U","NORAD_CAT_ID":41167,"ELEMENT_SET_NO":999,"REV_AT_EPOCH":57001,"BSTAR":0.00020222,"MEAN_MOTION_DOT":5.624e-5,"MEAN_MOTION_DDOT":0},{"OBJECT_NAME":"GAOFEN-4","OBJECT_ID":"2015-083A","EPOCH":"2026-04-05T20:40:38.886816","MEAN_MOTION":1.00270803,"ECCENTRICITY":0.0006205,"INCLINATION":0.3953,"RA_OF_ASC_NODE":82.9472,"ARG_OF_PERICENTER":84.8085,"MEAN_ANOMALY":82.2552,"EPHEMERIS_TYPE":0,"CLASSIFICATION_TYPE":"U","NORAD_CAT_ID":41194,"ELEMENT_SET_NO":999,"REV_AT_EPOCH":3780,"BSTAR":0,"MEAN_MOTION_DOT":-3.33e-6,"MEAN_MOTION_DDOT":0},{"OBJECT_NAME":"JASON-3","OBJECT_ID":"2016-002A","EPOCH":"2026-04-05T20:20:06.637920","MEAN_MOTION":12.87627875,"ECCENTRICITY":0.0007672,"INCLINATION":66.04,"RA_OF_ASC_NODE":277.9232,"ARG_OF_PERICENTER":276.0567,"MEAN_ANOMALY":83.9577,"EPHEMERIS_TYPE":0,"CLASSIFICATION_TYPE":"U","NORAD_CAT_ID":41240,"ELEMENT_SET_NO":999,"REV_AT_EPOCH":47793,"BSTAR":1.9605e-5,"MEAN_MOTION_DOT":-5.7e-7,"MEAN_MOTION_DDOT":0},{"OBJECT_NAME":"SENTINEL-3A","OBJECT_ID":"2016-011A","EPOCH":"2026-04-05T20:13:13.027296","MEAN_MOTION":14.26733843,"ECCENTRICITY":0.0001093,"INCLINATION":98.6296,"RA_OF_ASC_NODE":164.2489,"ARG_OF_PERICENTER":89.6995,"MEAN_ANOMALY":270.4311,"EPHEMERIS_TYPE":0,"CLASSIFICATION_TYPE":"U","NORAD_CAT_ID":41335,"ELEMENT_SET_NO":999,"REV_AT_EPOCH":52774,"BSTAR":0.00010595,"MEAN_MOTION_DOT":2.13e-6,"MEAN_MOTION_DDOT":0},{"OBJECT_NAME":"ZIYUAN 3-02 (ZY 3-02)","OBJECT_ID":"2016-033A","EPOCH":"2026-04-05T20:08:44.598048","MEAN_MOTION":15.21369558,"ECCENTRICITY":0.0013657,"INCLINATION":97.3857,"RA_OF_ASC_NODE":172.9901,"ARG_OF_PERICENTER":184.1992,"MEAN_ANOMALY":175.9132,"EPHEMERIS_TYPE":0,"CLASSIFICATION_TYPE":"U","NORAD_CAT_ID":41556,"ELEMENT_SET_NO":999,"REV_AT_EPOCH":54698,"BSTAR":0.00037013,"MEAN_MOTION_DOT":8.25e-5,"MEAN_MOTION_DDOT":0},{"OBJECT_NAME":"CARTOSAT-2C","OBJECT_ID":"2016-040A","EPOCH":"2026-04-05T19:23:06.207072","MEAN_MOTION":15.19224551,"ECCENTRICITY":0.0009927,"INCLINATION":97.4548,"RA_OF_ASC_NODE":156.7524,"ARG_OF_PERICENTER":33.3991,"MEAN_ANOMALY":326.7868,"EPHEMERIS_TYPE":0,"CLASSIFICATION_TYPE":"U","NORAD_CAT_ID":41599,"ELEMENT_SET_NO":999,"REV_AT_EPOCH":54272,"BSTAR":0.00024306,"MEAN_MOTION_DOT":5.057e-5,"MEAN_MOTION_DDOT":0},{"OBJECT_NAME":"SKYSAT-C1","OBJECT_ID":"2016-040C","EPOCH":"2026-04-05T08:48:19.968192","MEAN_MOTION":15.35104314,"ECCENTRICITY":6.026e-5,"INCLINATION":96.9644,"RA_OF_ASC_NODE":131.0677,"ARG_OF_PERICENTER":326.579,"MEAN_ANOMALY":33.5417,"EPHEMERIS_TYPE":0,"CLASSIFICATION_TYPE":"U","NORAD_CAT_ID":41601,"ELEMENT_SET_NO":999,"REV_AT_EPOCH":54669,"BSTAR":0.00036517433,"MEAN_MOTION_DOT":0.00012372,"MEAN_MOTION_DDOT":0},{"OBJECT_NAME":"LAPAN-A3","OBJECT_ID":"2016-040E","EPOCH":"2026-04-05T20:40:11.498880","MEAN_MOTION":15.3263087,"ECCENTRICITY":0.0008363,"INCLINATION":97.1493,"RA_OF_ASC_NODE":94.4131,"ARG_OF_PERICENTER":276.3,"MEAN_ANOMALY":83.729,"EPHEMERIS_TYPE":0,"CLASSIFICATION_TYPE":"U","NORAD_CAT_ID":41603,"ELEMENT_SET_NO":999,"REV_AT_EPOCH":54373,"BSTAR":0.00015865,"MEAN_MOTION_DOT":4.928e-5,"MEAN_MOTION_DDOT":0},{"OBJECT_NAME":"GAOFEN-3","OBJECT_ID":"2016-049A","EPOCH":"2026-04-05T20:40:41.827872","MEAN_MOTION":14.42222768,"ECCENTRICITY":0.0001576,"INCLINATION":98.4041,"RA_OF_ASC_NODE":104.7314,"ARG_OF_PERICENTER":70.1965,"MEAN_ANOMALY":289.9394,"EPHEMERIS_TYPE":0,"CLASSIFICATION_TYPE":"U","NORAD_CAT_ID":41727,"ELEMENT_SET_NO":999,"REV_AT_EPOCH":50822,"BSTAR":-1.1635e-5,"MEAN_MOTION_DOT":-8.2e-7,"MEAN_MOTION_DDOT":0},{"OBJECT_NAME":"SKYSAT-C4","OBJECT_ID":"2016-058B","EPOCH":"2026-04-05T12:27:32.846688","MEAN_MOTION":15.46402302,"ECCENTRICITY":0.00030201,"INCLINATION":96.9246,"RA_OF_ASC_NODE":120.4257,"ARG_OF_PERICENTER":124.5066,"MEAN_ANOMALY":235.647,"EPHEMERIS_TYPE":0,"CLASSIFICATION_TYPE":"U","NORAD_CAT_ID":41771,"ELEMENT_SET_NO":999,"REV_AT_EPOCH":53423,"BSTAR":0.00037982116,"MEAN_MOTION_DOT":0.00018723,"MEAN_MOTION_DDOT":0},{"OBJECT_NAME":"SKYSAT-C5","OBJECT_ID":"2016-058C","EPOCH":"2026-04-05T16:45:39.070368","MEAN_MOTION":15.34258715,"ECCENTRICITY":0.0002317,"INCLINATION":97.0553,"RA_OF_ASC_NODE":139.5856,"ARG_OF_PERICENTER":169.3401,"MEAN_ANOMALY":190.7892,"EPHEMERIS_TYPE":0,"CLASSIFICATION_TYPE":"U","NORAD_CAT_ID":41772,"ELEMENT_SET_NO":999,"REV_AT_EPOCH":53263,"BSTAR":0.0003029,"MEAN_MOTION_DOT":9.974e-5,"MEAN_MOTION_DDOT":0},{"OBJECT_NAME":"SKYSAT-C2","OBJECT_ID":"2016-058D","EPOCH":"2026-04-05T19:15:55.968768","MEAN_MOTION":15.40487567,"ECCENTRICITY":0.0001949,"INCLINATION":97.024,"RA_OF_ASC_NODE":120.6838,"ARG_OF_PERICENTER":351.1663,"MEAN_ANOMALY":8.9549,"EPHEMERIS_TYPE":0,"CLASSIFICATION_TYPE":"U","NORAD_CAT_ID":41773,"ELEMENT_SET_NO":999,"REV_AT_EPOCH":53390,"BSTAR":0.0003829,"MEAN_MOTION_DOT":0.00015457,"MEAN_MOTION_DDOT":0},{"OBJECT_NAME":"SKYSAT-C3","OBJECT_ID":"2016-058E","EPOCH":"2026-04-05T16:35:35.955168","MEAN_MOTION":15.49643374,"ECCENTRICITY":0.0002441,"INCLINATION":96.9117,"RA_OF_ASC_NODE":129.4336,"ARG_OF_PERICENTER":110.9766,"MEAN_ANOMALY":249.1748,"EPHEMERIS_TYPE":0,"CLASSIFICATION_TYPE":"U","NORAD_CAT_ID":41774,"ELEMENT_SET_NO":999,"REV_AT_EPOCH":53487,"BSTAR":0.00048593,"MEAN_MOTION_DOT":0.0002686,"MEAN_MOTION_DDOT":0},{"OBJECT_NAME":"ALSAT-1B","OBJECT_ID":"2016-059C","EPOCH":"2026-04-05T20:35:20.220288","MEAN_MOTION":14.72219349,"ECCENTRICITY":0.0010802,"INCLINATION":97.7786,"RA_OF_ASC_NODE":107.7373,"ARG_OF_PERICENTER":97.1364,"MEAN_ANOMALY":263.1073,"EPHEMERIS_TYPE":0,"CLASSIFICATION_TYPE":"U","NORAD_CAT_ID":41785,"ELEMENT_SET_NO":999,"REV_AT_EPOCH":50993,"BSTAR":0.0001173,"MEAN_MOTION_DOT":6.93e-6,"MEAN_MOTION_DDOT":0},{"OBJECT_NAME":"PATHFINDER 1","OBJECT_ID":"2016-059E","EPOCH":"2026-04-05T20:48:39.176640","MEAN_MOTION":14.67571326,"ECCENTRICITY":0.0029949,"INCLINATION":97.8183,"RA_OF_ASC_NODE":98.4095,"ARG_OF_PERICENTER":77.5714,"MEAN_ANOMALY":282.884,"EPHEMERIS_TYPE":0,"CLASSIFICATION_TYPE":"U","NORAD_CAT_ID":41787,"ELEMENT_SET_NO":999,"REV_AT_EPOCH":50910,"BSTAR":0.0001993,"MEAN_MOTION_DOT":1.092e-5,"MEAN_MOTION_DDOT":0},{"OBJECT_NAME":"SCATSAT 1","OBJECT_ID":"2016-059H","EPOCH":"2026-04-05T15:25:02.366400","MEAN_MOTION":14.79363616,"ECCENTRICITY":0.0056036,"INCLINATION":98.1245,"RA_OF_ASC_NODE":158.6498,"ARG_OF_PERICENTER":121.3514,"MEAN_ANOMALY":239.3198,"EPHEMERIS_TYPE":0,"CLASSIFICATION_TYPE":"U","NORAD_CAT_ID":41790,"ELEMENT_SET_NO":999,"REV_AT_EPOCH":9086,"BSTAR":0.00030794,"MEAN_MOTION_DOT":2.3e-5,"MEAN_MOTION_DDOT":0},{"OBJECT_NAME":"GOKTURK 1A","OBJECT_ID":"2016-073A","EPOCH":"2026-04-05T19:21:01.050624","MEAN_MOTION":14.62779862,"ECCENTRICITY":0.0001366,"INCLINATION":98.1328,"RA_OF_ASC_NODE":351.5859,"ARG_OF_PERICENTER":82.6991,"MEAN_ANOMALY":277.4366,"EPHEMERIS_TYPE":0,"CLASSIFICATION_TYPE":"U","NORAD_CAT_ID":41875,"ELEMENT_SET_NO":999,"REV_AT_EPOCH":49824,"BSTAR":0.00011635,"MEAN_MOTION_DOT":5.47e-6,"MEAN_MOTION_DDOT":0}]
